[{"OBJECT_NAME":"ONEWEB-0628","OBJECT_ID":"2023-004AF","EPOCH":"2025-11-21T04:48:31.286304","MEAN_MOTION":13.124332,"ECCENTRICITY":0.0001448,"INCLINATION":87.8979,"RA_OF_ASC_NODE":31.9695,"ARG_OF_PERICENTER":119.279,"MEAN_ANOMALY":240.8484,"EPHEMERIS_TYPE":0,"CLASSIFICATION_TYPE":"U","NORAD_CAT_ID":55169,"ELEMENT_SET_NO":999,"REV_AT_EPOCH":14075,"BSTAR":0.006415,"MEAN_MOTION_DOT":2.321e-5,"MEAN_MOTION_DDOT":0},{"OBJECT_NAME":"ONEWEB-0629","OBJECT_ID":"2023-004AG","EPOCH":"2025-11-21T06:37:43.421664","MEAN_MOTION":13.17651382,"ECCENTRICITY":0.0001756,"INCLINATION":87.9127,"RA_OF_ASC_NODE":47.2221,"ARG_OF_PERICENTER":113.3272,"MEAN_ANOMALY":246.8044,"EPHEMERIS_TYPE":0,"CLASSIFICATION_TYPE":"U","NORAD_CAT_ID":55170,"ELEMENT_SET_NO":999,"REV_AT_EPOCH":14020,"BSTAR":0.00018565,"MEAN_MOTION_DOT":8.5e-7,"MEAN_MOTION_DDOT":0},{"OBJECT_NAME":"ONEWEB-0631","OBJECT_ID":"2023-004AH","EPOCH":"2025-11-21T13:53:36.952224","MEAN_MOTION":13.18684454,"ECCENTRICITY":0.0001724,"INCLINATION":87.9207,"RA_OF_ASC_NODE":16.6675,"ARG_OF_PERICENTER":80.3774,"MEAN_ANOMALY":279.7553,"EPHEMERIS_TYPE":0,"CLASSIFICATION_TYPE":"U","NORAD_CAT_ID":55171,"ELEMENT_SET_NO":999,"REV_AT_EPOCH":14231,"BSTAR":0.00011611,"MEAN_MOTION_DOT":5.9e-7,"MEAN_MOTION_DDOT":0},{"OBJECT_NAME":"ONEWEB-0709","OBJECT_ID":"2023-004AJ","EPOCH":"2025-11-21T07:05:43.226880","MEAN_MOTION":13.1141605,"ECCENTRICITY":0.0002112,"INCLINATION":87.8861,"RA_OF_ASC_NODE":62.4864,"ARG_OF_PERICENTER":79.4956,"MEAN_ANOMALY":280.641,"EPHEMERIS_TYPE":0,"CLASSIFICATION_TYPE":"U","NORAD_CAT_ID":55172,"ELEMENT_SET_NO":999,"REV_AT_EPOCH":13862,"BSTAR":-0.0011063,"MEAN_MOTION_DOT":-3.79e-6,"MEAN_MOTION_DDOT":0},{"OBJECT_NAME":"ONEWEB-0710","OBJECT_ID":"2023-004AK","EPOCH":"2025-11-21T12:26:25.198944","MEAN_MOTION":13.17647587,"ECCENTRICITY":0.0001557,"INCLINATION":87.9128,"RA_OF_ASC_NODE":47.1681,"ARG_OF_PERICENTER":102.4527,"MEAN_ANOMALY":257.6778,"EPHEMERIS_TYPE":0,"CLASSIFICATION_TYPE":"U","NORAD_CAT_ID":55173,"ELEMENT_SET_NO":999,"REV_AT_EPOCH":14023,"BSTAR":0.00018816,"MEAN_MOTION_DOT":8.6e-7,"MEAN_MOTION_DDOT":0},{"OBJECT_NAME":"ONEWEB-0711","OBJECT_ID":"2023-004AL","EPOCH":"2025-11-21T06:24:13.592736","MEAN_MOTION":13.11417501,"ECCENTRICITY":9.48e-5,"INCLINATION":87.8873,"RA_OF_ASC_NODE":62.4641,"ARG_OF_PERICENTER":115.6981,"MEAN_ANOMALY":244.4244,"EPHEMERIS_TYPE":0,"CLASSIFICATION_TYPE":"U","NORAD_CAT_ID":55174,"ELEMENT_SET_NO":999,"REV_AT_EPOCH":13858,"BSTAR":0.0015974,"MEAN_MOTION_DOT":5.79e-6,"MEAN_MOTION_DDOT":0},{"OBJECT_NAME":"ONEWEB-0713","OBJECT_ID":"2023-004AM","EPOCH":"2025-11-21T06:51:05.351040","MEAN_MOTION":13.1141834,"ECCENTRICITY":0.0001216,"INCLINATION":87.8867,"RA_OF_ASC_NODE":62.464,"ARG_OF_PERICENTER":108.8397,"MEAN_ANOMALY":251.2863,"EPHEMERIS_TYPE":0,"CLASSIFICATION_TYPE":"U","NORAD_CAT_ID":55175,"ELEMENT_SET_NO":999,"REV_AT_EPOCH":13857,"BSTAR":7.8383e-5,"MEAN_MOTION_DOT":4.0e-7,"MEAN_MOTION_DDOT":0},{"OBJECT_NAME":"ONEWEB-0715","OBJECT_ID":"2023-004AN","EPOCH":"2025-11-21T06:43:44.900256","MEAN_MOTION":13.11414715,"ECCENTRICITY":0.000167,"INCLINATION":87.8868,"RA_OF_ASC_NODE":62.465,"ARG_OF_PERICENTER":78.0405,"MEAN_ANOMALY":282.091,"EPHEMERIS_TYPE":0,"CLASSIFICATION_TYPE":"U","NORAD_CAT_ID":55176,"ELEMENT_SET_NO":999,"REV_AT_EPOCH":13861,"BSTAR":0.00077517,"MEAN_MOTION_DOT":2.87e-6,"MEAN_MOTION_DDOT":0},{"OBJECT_NAME":"ONEWEB-0716","OBJECT_ID":"2023-004AP","EPOCH":"2025-11-21T06:48:38.775168","MEAN_MOTION":13.17649979,"ECCENTRICITY":0.0001937,"INCLINATION":87.9129,"RA_OF_ASC_NODE":47.2147,"ARG_OF_PERICENTER":104.8385,"MEAN_ANOMALY":255.2961,"EPHEMERIS_TYPE":0,"CLASSIFICATION_TYPE":"U","NORAD_CAT_ID":55177,"ELEMENT_SET_NO":999,"REV_AT_EPOCH":14020,"BSTAR":-0.0002896,"MEAN_MOTION_DOT":-1.0e-6,"MEAN_MOTION_DDOT":0},{"OBJECT_NAME":"ONEWEB-0717","OBJECT_ID":"2023-004AQ","EPOCH":"2025-11-21T06:24:20.841696","MEAN_MOTION":13.17647082,"ECCENTRICITY":0.0001022,"INCLINATION":87.914,"RA_OF_ASC_NODE":47.1872,"ARG_OF_PERICENTER":98.4323,"MEAN_ANOMALY":261.6925,"EPHEMERIS_TYPE":0,"CLASSIFICATION_TYPE":"U","NORAD_CAT_ID":55178,"ELEMENT_SET_NO":999,"REV_AT_EPOCH":14025,"BSTAR":0.00018835,"MEAN_MOTION_DOT":8.6e-7,"MEAN_MOTION_DDOT":0},{"OBJECT_NAME":"ONEWEB-0719","OBJECT_ID":"2023-004AR","EPOCH":"2025-11-21T06:38:55.906080","MEAN_MOTION":13.17647276,"ECCENTRICITY":0.000189,"INCLINATION":87.9138,"RA_OF_ASC_NODE":47.1678,"ARG_OF_PERICENTER":108.9314,"MEAN_ANOMALY":251.2022,"EPHEMERIS_TYPE":0,"CLASSIFICATION_TYPE":"U","NORAD_CAT_ID":55179,"ELEMENT_SET_NO":999,"REV_AT_EPOCH":14020,"BSTAR":9.2391e-5,"MEAN_MOTION_DOT":4.9e-7,"MEAN_MOTION_DDOT":0},{"OBJECT_NAME":"ONEWEB-0530","OBJECT_ID":"2023-029A","EPOCH":"2025-11-21T10:35:10.868064","MEAN_MOTION":13.20772794,"ECCENTRICITY":0.0001333,"INCLINATION":87.9175,"RA_OF_ASC_NODE":315.9157,"ARG_OF_PERICENTER":94.379,"MEAN_ANOMALY":265.7496,"EPHEMERIS_TYPE":0,"CLASSIFICATION_TYPE":"U","NORAD_CAT_ID":55796,"ELEMENT_SET_NO":999,"REV_AT_EPOCH":13372,"BSTAR":-9.8203e-5,"MEAN_MOTION_DOT":-2.7e-7,"MEAN_MOTION_DDOT":0},{"OBJECT_NAME":"ONEWEB-0534","OBJECT_ID":"2023-029B","EPOCH":"2025-11-21T12:06:05.529888","MEAN_MOTION":13.20772938,"ECCENTRICITY":0.0001895,"INCLINATION":87.9175,"RA_OF_ASC_NODE":315.9042,"ARG_OF_PERICENTER":90.6875,"MEAN_ANOMALY":269.4475,"EPHEMERIS_TYPE":0,"CLASSIFICATION_TYPE":"U","NORAD_CAT_ID":55797,"ELEMENT_SET_NO":999,"REV_AT_EPOCH":13373,"BSTAR":0.00015402,"MEAN_MOTION_DOT":7.6e-7,"MEAN_MOTION_DDOT":0},{"OBJECT_NAME":"ONEWEB-0556","OBJECT_ID":"2023-029C","EPOCH":"2025-11-21T12:15:09.874080","MEAN_MOTION":13.20771006,"ECCENTRICITY":0.0002164,"INCLINATION":87.9179,"RA_OF_ASC_NODE":315.9022,"ARG_OF_PERICENTER":115.1457,"MEAN_ANOMALY":244.9901,"EPHEMERIS_TYPE":0,"CLASSIFICATION_TYPE":"U","NORAD_CAT_ID":55798,"ELEMENT_SET_NO":999,"REV_AT_EPOCH":13373,"BSTAR":6.5145e-5,"MEAN_MOTION_DOT":3.9e-7,"MEAN_MOTION_DDOT":0},{"OBJECT_NAME":"ONEWEB-0562","OBJECT_ID":"2023-029D","EPOCH":"2025-11-21T11:56:58.266240","MEAN_MOTION":13.20769756,"ECCENTRICITY":0.0001338,"INCLINATION":87.9177,"RA_OF_ASC_NODE":315.888,"ARG_OF_PERICENTER":115.9525,"MEAN_ANOMALY":244.1746,"EPHEMERIS_TYPE":0,"CLASSIFICATION_TYPE":"U","NORAD_CAT_ID":55799,"ELEMENT_SET_NO":999,"REV_AT_EPOCH":13373,"BSTAR":-7.0124e-6,"MEAN_MOTION_DOT":1.0e-7,"MEAN_MOTION_DDOT":0},{"OBJECT_NAME":"ONEWEB-0563","OBJECT_ID":"2023-029E","EPOCH":"2025-11-21T11:47:54.644352","MEAN_MOTION":13.20773246,"ECCENTRICITY":0.0002063,"INCLINATION":87.9181,"RA_OF_ASC_NODE":315.9157,"ARG_OF_PERICENTER":93.8452,"MEAN_ANOMALY":266.2917,"EPHEMERIS_TYPE":0,"CLASSIFICATION_TYPE":"U","NORAD_CAT_ID":55800,"ELEMENT_SET_NO":999,"REV_AT_EPOCH":13372,"BSTAR":8.3673e-5,"MEAN_MOTION_DOT":4.7e-7,"MEAN_MOTION_DDOT":0},{"OBJECT_NAME":"ONEWEB-0564","OBJECT_ID":"2023-029F","EPOCH":"2025-11-21T11:38:48.574752","MEAN_MOTION":13.20773266,"ECCENTRICITY":0.0001511,"INCLINATION":87.9176,"RA_OF_ASC_NODE":315.8944,"ARG_OF_PERICENTER":95.5533,"MEAN_ANOMALY":264.5773,"EPHEMERIS_TYPE":0,"CLASSIFICATION_TYPE":"U","NORAD_CAT_ID":55801,"ELEMENT_SET_NO":999,"REV_AT_EPOCH":13373,"BSTAR":-9.4744e-5,"MEAN_MOTION_DOT":-2.6e-7,"MEAN_MOTION_DDOT":0},{"OBJECT_NAME":"ONEWEB-0638","OBJECT_ID":"2023-029G","EPOCH":"2025-11-21T12:22:10.968672","MEAN_MOTION":13.14502886,"ECCENTRICITY":0.0001761,"INCLINATION":87.8975,"RA_OF_ASC_NODE":331.1442,"ARG_OF_PERICENTER":107.4446,"MEAN_ANOMALY":252.6876,"EPHEMERIS_TYPE":0,"CLASSIFICATION_TYPE":"U","NORAD_CAT_ID":55802,"ELEMENT_SET_NO":999,"REV_AT_EPOCH":13211,"BSTAR":-0.00063991,"MEAN_MOTION_DOT":-2.24e-6,"MEAN_MOTION_DDOT":0},{"OBJECT_NAME":"ONEWEB-0639","OBJECT_ID":"2023-029H","EPOCH":"2025-11-21T03:24:51.549120","MEAN_MOTION":13.19727761,"ECCENTRICITY":0.0002981,"INCLINATION":87.92,"RA_OF_ASC_NODE":346.38,"ARG_OF_PERICENTER":90.9476,"MEAN_ANOMALY":269.1998,"EPHEMERIS_TYPE":0,"CLASSIFICATION_TYPE":"U","NORAD_CAT_ID":55803,"ELEMENT_SET_NO":999,"REV_AT_EPOCH":13146,"BSTAR":-0.00012773,"MEAN_MOTION_DOT":-3.8e-7,"MEAN_MOTION_DDOT":0},{"OBJECT_NAME":"ONEWEB-0640","OBJECT_ID":"2023-029J","EPOCH":"2025-11-21T10:46:15.627072","MEAN_MOTION":13.14502339,"ECCENTRICITY":0.0002276,"INCLINATION":87.8978,"RA_OF_ASC_NODE":331.1441,"ARG_OF_PERICENTER":109.6383,"MEAN_ANOMALY":250.4992,"EPHEMERIS_TYPE":0,"CLASSIFICATION_TYPE":"U","NORAD_CAT_ID":55804,"ELEMENT_SET_NO":999,"REV_AT_EPOCH":13212,"BSTAR":-0.00012602,"MEAN_MOTION_DOT":-3.4e-7,"MEAN_MOTION_DDOT":0},{"OBJECT_NAME":"ONEWEB-0641","OBJECT_ID":"2023-029K","EPOCH":"2025-11-21T14:13:04.241280","MEAN_MOTION":13.19728635,"ECCENTRICITY":0.0002017,"INCLINATION":87.9209,"RA_OF_ASC_NODE":346.2693,"ARG_OF_PERICENTER":92.2058,"MEAN_ANOMALY":267.9306,"EPHEMERIS_TYPE":0,"CLASSIFICATION_TYPE":"U","NORAD_CAT_ID":55805,"ELEMENT_SET_NO":999,"REV_AT_EPOCH":13153,"BSTAR":-0.00018389,"MEAN_MOTION_DOT":-6.1e-7,"MEAN_MOTION_DDOT":0},{"OBJECT_NAME":"ONEWEB-0642","OBJECT_ID":"2023-029L","EPOCH":"2025-11-21T14:06:15.531264","MEAN_MOTION":13.19727548,"ECCENTRICITY":0.0002705,"INCLINATION":87.9199,"RA_OF_ASC_NODE":346.2954,"ARG_OF_PERICENTER":84.6767,"MEAN_ANOMALY":275.4674,"EPHEMERIS_TYPE":0,"CLASSIFICATION_TYPE":"U","NORAD_CAT_ID":55806,"ELEMENT_SET_NO":999,"REV_AT_EPOCH":13152,"BSTAR":-0.00011352,"MEAN_MOTION_DOT":-3.2e-7,"MEAN_MOTION_DDOT":0},{"OBJECT_NAME":"ONEWEB-0643","OBJECT_ID":"2023-029M","EPOCH":"2025-11-21T13:42:05.832576","MEAN_MOTION":13.14502116,"ECCENTRICITY":0.000235,"INCLINATION":87.8988,"RA_OF_ASC_NODE":331.1049,"ARG_OF_PERICENTER":77.6565,"MEAN_ANOMALY":282.4828,"EPHEMERIS_TYPE":0,"CLASSIFICATION_TYPE":"U","NORAD_CAT_ID":55807,"ELEMENT_SET_NO":999,"REV_AT_EPOCH":13211,"BSTAR":9.6623e-6,"MEAN_MOTION_DOT":1.6e-7,"MEAN_MOTION_DDOT":0},{"OBJECT_NAME":"ONEWEB-0644","OBJECT_ID":"2023-029N","EPOCH":"2025-11-21T13:59:26.323584","MEAN_MOTION":13.19726948,"ECCENTRICITY":0.0002344,"INCLINATION":87.92,"RA_OF_ASC_NODE":346.306,"ARG_OF_PERICENTER":88.1313,"MEAN_ANOMALY":272.0088,"EPHEMERIS_TYPE":0,"CLASSIFICATION_TYPE":"U","NORAD_CAT_ID":55808,"ELEMENT_SET_NO":999,"REV_AT_EPOCH":13152,"BSTAR":-4.5278e-5,"MEAN_MOTION_DOT":-5.0e-8,"MEAN_MOTION_DDOT":0}]
